{
    "links": {
        "self": "http://www.neowsapp.com/rest/v1/neo/3843635?api_key=iIulBulltgU6a56xZRHN4H3l9WmuAYTsLGpBGhQ2"
    },
    "id": "3843635",
    "neo_reference_id": "3843635",
    "name": "(2019 QY3)",
    "designation": "2019 QY3",
    "nasa_jpl_url": "http://ssd.jpl.nasa.gov/sbdb.cgi?sstr=3843635",
    "absolute_magnitude_h": 24.5,
    "estimated_diameter": {
        "kilometers": {
            "estimated_diameter_min": 0.0334622374,
            "estimated_diameter_max": 0.0748238376
        },
        "meters": {
            "estimated_diameter_min": 33.4622374455,
            "estimated_diameter_max": 74.8238376074
        },
        "miles": {
            "estimated_diameter_min": 0.0207924639,
            "estimated_diameter_max": 0.0464933628
        },
        "feet": {
            "estimated_diameter_min": 109.7842471007,
            "estimated_diameter_max": 245.4850393757
        }
    },
    "is_potentially_hazardous_asteroid": false,
    "close_approach_data": [
        {
            "close_approach_date": "2019-09-26",
            "close_approach_date_full": "2019-Sep-26 07:36",
            "epoch_date_close_approach": 1569483360000,
            "relative_velocity": {
                "kilometers_per_second": "8.3667030504",
                "kilometers_per_hour": "30120.1309814831",
                "miles_per_hour": "18715.4780534666"
            },
            "miss_distance": {
                "astronomical": "0.0356628731",
                "lunar": "13.8728576359",
                "kilometers": "5335089.853840297",
                "miles": "3315071.1132862186"
            },
            "orbiting_body": "Earth"
        }
    ],
    "orbital_data": {
        "orbit_id": "12",
        "orbit_determination_date": "2019-10-14 05:45:16",
        "first_observation_date": "2019-08-23",
        "last_observation_date": "2019-09-21",
        "data_arc_in_days": 29,
        "observations_used": 54,
        "orbit_uncertainty": "7",
        "minimum_orbit_intersection": ".0218704",
        "jupiter_tisserand_invariant": "3.502",
        "epoch_osculation": "2459000.5",
        "eccentricity": ".5403989813636642",
        "semi_major_axis": "2.149165122991026",
        "inclination": "1.42527248892417",
        "ascending_node_longitude": "281.2206599701035",
        "orbital_period": "1150.80861160686",
        "perihelion_distance": ".9877584797443616",
        "perihelion_argument": "107.518511227373",
        "aphelion_distance": "3.310571766237691",
        "perihelion_time": "2458773.439638023608",
        "mean_anomaly": "71.02982154206016",
        "mean_motion": ".3128235193663839",
        "equinox": "J2000",
        "orbit_class": {
            "orbit_class_type": "APO",
            "orbit_class_description": "Near-Earth asteroid orbits which cross the Earth’s orbit similar to that of 1862 Apollo",
            "orbit_class_range": "a (semi-major axis) > 1.0 AU; q (perihelion) < 1.017 AU"
        }
    },
    "is_sentry_object": false
}